start=new Date('2022-09-25T00:00:00.000Z').valueOf();
sats=[{"BSTAR":"0.00078900000000","CLASSIFICATION_TYPE":"U","MEAN_MOTION":"15.07391613","OBJECT_TYPE":"PAYLOAD","LAUNCH_DATE":"2020-06-13","EPOCH":"2022-09-24T19:29:08.878848","TLE_LINE1":"1 45779U 20038BB  22267.81190832  .00011808  00000-0  78900-3 0  9991","OBJECT_NAME":"STARLINK-1492","MEAN_ANOMALY":"240.8624","PERIOD":"95.529","CENTER_NAME":"EARTH","MEAN_ELEMENT_THEORY":"SGP4","ARG_OF_PERICENTER":"119.2585","PERIAPSIS":"542.658","SITE":"AFETR","SEMIMAJOR_AXIS":"6922.311","TIME_SYSTEM":"UTC","FILE":"3582616","TLE_LINE2":"2 45779  53.0545 101.2999 0002193 119.2585 240.8624 15.07391613126554","ECCENTRICITY":"0.00021930","REV_AT_EPOCH":"12655","MEAN_MOTION_DOT":"0.00011808","INCLINATION":"53.0545","COUNTRY_CODE":"US","OBJECT_ID":"2020-038BB","ELEMENT_SET_NO":"999","APOAPSIS":"545.694","MEAN_MOTION_DDOT":"0.0000000000000","DECAY_DATE":null,"REF_FRAME":"TEME","RA_OF_ASC_NODE":"101.2999","RCS_SIZE":"LARGE","EPHEMERIS_TYPE":"0","NORAD_CAT_ID":"45779","GP_ID":"213402030"},{"MEAN_MOTION_DOT":"0.00002817","REV_AT_EPOCH":"12655","TIME_SYSTEM":"UTC","SEMIMAJOR_AXIS":"6925.332","ECCENTRICITY":"0.00013130","FILE":"3582616","TLE_LINE2":"2 45780  53.0521 101.3006 0001313  87.5761 272.5378 15.06405396126557","PERIAPSIS":"546.288","MEAN_ANOMALY":"272.5378","PERIOD":"95.592","CENTER_NAME":"EARTH","MEAN_ELEMENT_THEORY":"SGP4","ARG_OF_PERICENTER":"87.5761","SITE":"AFETR","OBJECT_TYPE":"PAYLOAD","MEAN_MOTION":"15.06405396","CLASSIFICATION_TYPE":"U","BSTAR":"0.00020787000000","OBJECT_NAME":"STARLINK-1496","TLE_LINE1":"1 45780U 20038BC  22267.83376137  .00002817  00000-0  20787-3 0  9999","EPOCH":"2022-09-24T20:00:36.982368","LAUNCH_DATE":"2020-06-13","EPHEMERIS_TYPE":"0","RCS_SIZE":"LARGE","GP_ID":"213402781","NORAD_CAT_ID":"45780","RA_OF_ASC_NODE":"101.3006","DECAY_DATE":null,"REF_FRAME":"TEME","COUNTRY_CODE":"US","INCLINATION":"53.0521","APOAPSIS":"548.106","MEAN_MOTION_DDOT":"0.0000000000000","OBJECT_ID":"2020-038BC","ELEMENT_SET_NO":"999"},{"MEAN_MOTION_DOT":"0.00003404","REV_AT_EPOCH":"12656","TIME_SYSTEM":"UTC","SEMIMAJOR_AXIS":"6925.326","ECCENTRICITY":"0.00012760","FILE":"3582616","TLE_LINE2":"2 45781  53.0537 101.2015 0001276  75.7721 284.3409 15.06407294126563","PERIAPSIS":"546.308","CENTER_NAME":"EARTH","PERIOD":"95.592","ARG_OF_PERICENTER":"75.7721","MEAN_ELEMENT_THEORY":"SGP4","MEAN_ANOMALY":"284.3409","SITE":"AFETR","OBJECT_TYPE":"PAYLOAD","MEAN_MOTION":"15.06407294","CLASSIFICATION_TYPE":"U","BSTAR":"0.00024726000000","OBJECT_NAME":"STARLINK-1497","EPOCH":"2022-09-24T20:37:46.380576","TLE_LINE1":"1 45781U 20038BD  22267.85956459  .00003404  00000-0  24726-3 0  9993","LAUNCH_DATE":"2020-06-13","EPHEMERIS_TYPE":"0","RCS_SIZE":"LARGE","GP_ID":"213401030","NORAD_CAT_ID":"45781","RA_OF_ASC_NODE":"101.2015","REF_FRAME":"TEME","DECAY_DATE":null,"COUNTRY_CODE":"US","INCLINATION":"53.0537","MEAN_MOTION_DDOT":"0.0000000000000","APOAPSIS":"548.075","ELEMENT_SET_NO":"999","OBJECT_ID":"2020-038BD"},{"GP_ID":"213401280","NORAD_CAT_ID":"45782","RCS_SIZE":"LARGE","EPHEMERIS_TYPE":"0","RA_OF_ASC_NODE":"101.3112","DECAY_DATE":null,"REF_FRAME":"TEME","APOAPSIS":"543.993","MEAN_MOTION_DDOT":"0.0000000000000","ELEMENT_SET_NO":"999","OBJECT_ID":"2020-038BE","COUNTRY_CODE":"US","INCLINATION":"53.0522","REV_AT_EPOCH":"12656","MEAN_MOTION_DOT":"0.00011011","ECCENTRICITY":"0.00022680","FILE":"3582616","TLE_LINE2":"2 45782  53.0522 101.3112 0002268 101.1205 259.0040 15.07964336126566","SEMIMAJOR_AXIS":"6920.558","TIME_SYSTEM":"UTC","SITE":"AFETR","PERIAPSIS":"540.854","MEAN_ELEMENT_THEORY":"SGP4","PERIOD":"95.493","CENTER_NAME":"EARTH","MEAN_ANOMALY":"259.0040","ARG_OF_PERICENTER":"101.1205","EPOCH":"2022-09-24T17:57:42.017472","TLE_LINE1":"1 45782U 20038BE  22267.74840298  .00011011  00000-0  72578-3 0  9996","OBJECT_NAME":"STARLINK-1498","LAUNCH_DATE":"2020-06-13","MEAN_MOTION":"15.07964336","OBJECT_TYPE":"PAYLOAD","BSTAR":"0.00072578000000","CLASSIFICATION_TYPE":"U"},{"EPOCH":"2022-09-24T20:32:27.220704","TLE_LINE1":"1 45783U 20038BF  22267.85587061  .00001100  00000-0  92686-4 0  9996","OBJECT_NAME":"STARLINK-1505","LAUNCH_DATE":"2020-06-13","MEAN_MOTION":"15.06411449","OBJECT_TYPE":"PAYLOAD","BSTAR":"0.00009268600000","CLASSIFICATION_TYPE":"U","SITE":"AFETR","PERIAPSIS":"546.157","MEAN_ELEMENT_THEORY":"SGP4","PERIOD":"95.591","ARG_OF_PERICENTER":"86.0630","CENTER_NAME":"EARTH","MEAN_ANOMALY":"274.0528","ECCENTRICITY":"0.00014750","FILE":"3582616","TLE_LINE2":"2 45783  53.0546 101.2141 0001475  86.0630 274.0528 15.06411449126576","SEMIMAJOR_AXIS":"6925.313","TIME_SYSTEM":"UTC","REV_AT_EPOCH":"12657","MEAN_MOTION_DOT":"0.00001100","APOAPSIS":"548.200","MEAN_MOTION_DDOT":"0.0000000000000","ELEMENT_SET_NO":"999","OBJECT_ID":"2020-038BF","COUNTRY_CODE":"US","INCLINATION":"53.0546","REF_FRAME":"TEME","DECAY_DATE":null,"RA_OF_ASC_NODE":"101.2141","GP_ID":"213402531","NORAD_CAT_ID":"45783","RCS_SIZE":"LARGE","EPHEMERIS_TYPE":"0"},{"RCS_SIZE":"LARGE","EPHEMERIS_TYPE":"0","NORAD_CAT_ID":"45784","GP_ID":"213402281","RA_OF_ASC_NODE":"101.3144","DECAY_DATE":null,"REF_FRAME":"TEME","INCLINATION":"53.0550","COUNTRY_CODE":"US","OBJECT_ID":"2020-038BG","ELEMENT_SET_NO":"999","APOAPSIS":"548.157","MEAN_MOTION_DDOT":"0.0000000000000","REV_AT_EPOCH":"12656","MEAN_MOTION_DOT":"0.00000276","SEMIMAJOR_AXIS":"6925.375","TIME_SYSTEM":"UTC","TLE_LINE2":"2 45784  53.0550 101.3144 0001324  72.5770 287.5364 15.06391426126562","FILE":"3582616","ECCENTRICITY":"0.00013240","CENTER_NAME":"EARTH","PERIOD":"95.593","MEAN_ANOMALY":"287.5364","ARG_OF_PERICENTER":"72.5770","MEAN_ELEMENT_THEORY":"SGP4","PERIAPSIS":"546.323","SITE":"AFETR","BSTAR":"0.00003744300000","CLASSIFICATION_TYPE":"U","MEAN_MOTION":"15.06391426","OBJECT_TYPE":"PAYLOAD","LAUNCH_DATE":"2020-06-13","EPOCH":"2022-09-24T19:55:19.418304","TLE_LINE1":"1 45784U 20038BG  22267.83008586  .00000276  00000-0  37443-4 0  9998","OBJECT_NAME":"STARLINK-1510"},{"RA_OF_ASC_NODE":"101.4189","RCS_SIZE":"LARGE","EPHEMERIS_TYPE":"0","GP_ID":"213401531","NORAD_CAT_ID":"45785","COUNTRY_CODE":"US","INCLINATION":"53.0554","APOAPSIS":"548.285","MEAN_MOTION_DDOT":"0.0000000000000","OBJECT_ID":"2020-038BH","ELEMENT_SET_NO":"999","REF_FRAME":"TEME","DECAY_DATE":null,"SEMIMAJOR_AXIS":"6925.349","TIME_SYSTEM":"UTC","ECCENTRICITY":"0.00015470","FILE":"3582616","TLE_LINE2":"2 45785  53.0554 101.4189 0001547  65.8336 294.2814 15.06399951126563","REV_AT_EPOCH":"12656","MEAN_MOTION_DOT":"0.00000537","MEAN_MOTION":"15.06399951","OBJECT_TYPE":"PAYLOAD","BSTAR":"0.00005491500000","CLASSIFICATION_TYPE":"U","EPOCH":"2022-09-24T19:28:46.629984","TLE_LINE1":"1 45785U 20038BH  22267.81165081  .00000537  00000-0  54915-4 0  9994","OBJECT_NAME":"STARLINK-1512","LAUNCH_DATE":"2020-06-13","PERIAPSIS":"546.142","PERIOD":"95.592","CENTER_NAME":"EARTH","MEAN_ELEMENT_THEORY":"SGP4","ARG_OF_PERICENTER":"65.8336","MEAN_ANOMALY":"294.2814","SITE":"AFETR"},{"REF_FRAME":"TEME","DECAY_DATE":null,"OBJECT_ID":"2020-038BJ","ELEMENT_SET_NO":"999","MEAN_MOTION_DDOT":"0.0000000000000","APOAPSIS":"548.162","INCLINATION":"53.0527","COUNTRY_CODE":"US","NORAD_CAT_ID":"45786","GP_ID":"213401780","RCS_SIZE":"LARGE","EPHEMERIS_TYPE":"0","RA_OF_ASC_NODE":"101.1814","SITE":"AFETR","ARG_OF_PERICENTER":"86.9483","PERIOD":"95.592","CENTER_NAME":"EARTH","MEAN_ANOMALY":"273.1664","MEAN_ELEMENT_THEORY":"SGP4","PERIAPSIS":"546.249","LAUNCH_DATE":"2020-06-13","TLE_LINE1":"1 45786U 20038BJ  22267.86325151  .00003351  00000-0  24374-3 0  9998","EPOCH":"2022-09-24T20:43:04.930464","OBJECT_NAME":"STARLINK-1513","BSTAR":"0.00024374000000","CLASSIFICATION_TYPE":"U","MEAN_MOTION":"15.06402577","OBJECT_TYPE":"PAYLOAD","REV_AT_EPOCH":"12657","MEAN_MOTION_DOT":"0.00003351","TLE_LINE2":"2 45786  53.0527 101.1814 0001381  86.9483 273.1664 15.06402577126578","FILE":"3582616","ECCENTRICITY":"0.00013810","SEMIMAJOR_AXIS":"6925.341","TIME_SYSTEM":"UTC"},{"RA_OF_ASC_NODE":"101.4495","EPHEMERIS_TYPE":"0","RCS_SIZE":"LARGE","GP_ID":"213402031","NORAD_CAT_ID":"45787","COUNTRY_CODE":"US","INCLINATION":"53.0539","APOAPSIS":"548.088","MEAN_MOTION_DDOT":"0.0000000000000","ELEMENT_SET_NO":"999","OBJECT_ID":"2020-038BK","REF_FRAME":"TEME","DECAY_DATE":null,"TIME_SYSTEM":"UTC","SEMIMAJOR_AXIS":"6925.349","ECCENTRICITY":"0.00012620","FILE":"3582616","TLE_LINE2":"2 45787  53.0539 101.4495 0001262  88.1905 271.9229 15.06399990126567","MEAN_MOTION_DOT":"0.00001542","REV_AT_EPOCH":"12656","OBJECT_TYPE":"PAYLOAD","MEAN_MOTION":"15.06399990","CLASSIFICATION_TYPE":"U","BSTAR":"0.00012242000000","OBJECT_NAME":"STARLINK-1517","EPOCH":"2022-09-24T19:18:08.972064","TLE_LINE1":"1 45787U 20038BK  22267.80427051  .00001542  00000-0  12242-3 0  9996","LAUNCH_DATE":"2020-06-13","PERIAPSIS":"546.340","MEAN_ELEMENT_THEORY":"SGP4","PERIOD":"95.592","CENTER_NAME":"EARTH","MEAN_ANOMALY":"271.9229","ARG_OF_PERICENTER":"88.1905","SITE":"AFETR"},{"MEAN_MOTION_DDOT":"0.0000000000000","APOAPSIS":"548.208","ELEMENT_SET_NO":"999","OBJECT_ID":"2020-055A","COUNTRY_CODE":"US","INCLINATION":"53.0581","DECAY_DATE":null,"REF_FRAME":"TEME","RA_OF_ASC_NODE":"31.2680","GP_ID":"213401555","NORAD_CAT_ID":"46027","EPHEMERIS_TYPE":"0","RCS_SIZE":"LARGE","OBJECT_NAME":"STARLINK-1522","EPOCH":"2022-09-24T20:15:12.926304","TLE_LINE1":"1 46027U 20055A   22267.84389961  .00000672  00000-0  63969-4 0  9990","LAUNCH_DATE":"2020-08-07","OBJECT_TYPE":"PAYLOAD","MEAN_MOTION":"15.06404828","CLASSIFICATION_TYPE":"U","BSTAR":"0.00006396900000","SITE":"AFETR","PERIAPSIS":"546.189","ARG_OF_PERICENTER":"78.3046","PERIOD":"95.592","CENTER_NAME":"EARTH","MEAN_ANOMALY":"281.8107","MEAN_ELEMENT_THEORY":"SGP4","ECCENTRICITY":"0.00014580","FILE":"3582616","TLE_LINE2":"2 46027  53.0581  31.2680 0001458  78.3046 281.8107 15.06404828118699","TIME_SYSTEM":"UTC","SEMIMAJOR_AXIS":"6925.334","MEAN_MOTION_DOT":"0.00000672","REV_AT_EPOCH":"11869"}];
